[{"OBJECT_NAME":"SL-8 R/B","OBJECT_ID":"1988-053B","EPOCH":"2026-03-28T10:44:31.629984","MEAN_MOTION":14.38928827,"ECCENTRICITY":0.00214747,"INCLINATION":74.0455,"RA_OF_ASC_NODE":77.8862,"ARG_OF_PERICENTER":254.6999,"MEAN_ANOMALY":267.2318,"EPHEMERIS_TYPE":0,"CLASSIFICATION_TYPE":"U","NORAD_CAT_ID":19257,"ELEMENT_SET_NO":999,"REV_AT_EPOCH":97929,"BSTAR":0.00012792902,"MEAN_MOTION_DOT":3.69e-6,"MEAN_MOTION_DDOT":0},{"OBJECT_NAME":"COSMOS 1975","OBJECT_ID":"1988-093A","EPOCH":"2026-03-28T12:24:48.269376","MEAN_MOTION":15.28319504,"ECCENTRICITY":0.00134024,"INCLINATION":82.5163,"RA_OF_ASC_NODE":98.7773,"ARG_OF_PERICENTER":103.3077,"MEAN_ANOMALY":256.9658,"EPHEMERIS_TYPE":0,"CLASSIFICATION_TYPE":"U","NORAD_CAT_ID":19573,"ELEMENT_SET_NO":999,"REV_AT_EPOCH":2228,"BSTAR":0.00028732787,"MEAN_MOTION_DOT":7.977e-5,"MEAN_MOTION_DDOT":0},{"OBJECT_NAME":"SL-14 R/B","OBJECT_ID":"1988-093B","EPOCH":"2026-03-28T14:36:59.929344","MEAN_MOTION":14.85678728,"ECCENTRICITY":0.00201299,"INCLINATION":82.5338,"RA_OF_ASC_NODE":24.2862,"ARG_OF_PERICENTER":339.8892,"MEAN_ANOMALY":193.549,"EPHEMERIS_TYPE":0,"CLASSIFICATION_TYPE":"U","NORAD_CAT_ID":19574,"ELEMENT_SET_NO":999,"REV_AT_EPOCH":382,"BSTAR":6.5682803e-5,"MEAN_MOTION_DOT":5.95e-6,"MEAN_MOTION_DDOT":0},{"OBJECT_NAME":"SL-16 R/B","OBJECT_ID":"1988-102B","EPOCH":"2026-03-28T11:33:53.976672","MEAN_MOTION":14.16153562,"ECCENTRICITY":0.00151059,"INCLINATION":70.9971,"RA_OF_ASC_NODE":111.9564,"ARG_OF_PERICENTER":333.4677,"MEAN_ANOMALY":26.5671,"EPHEMERIS_TYPE":0,"CLASSIFICATION_TYPE":"U","NORAD_CAT_ID":19650,"ELEMENT_SET_NO":999,"REV_AT_EPOCH":92955,"BSTAR":-5.0535598e-5,"MEAN_MOTION_DOT":-1.48e-6,"MEAN_MOTION_DDOT":0},{"OBJECT_NAME":"INTERCOSMOS 24","OBJECT_ID":"1989-080A","EPOCH":"2026-03-28T11:15:23.676192","MEAN_MOTION":12.59582048,"ECCENTRICITY":0.11868506,"INCLINATION":82.6011,"RA_OF_ASC_NODE":92.1712,"ARG_OF_PERICENTER":249.1916,"MEAN_ANOMALY":97.826,"EPHEMERIS_TYPE":0,"CLASSIFICATION_TYPE":"U","NORAD_CAT_ID":20261,"ELEMENT_SET_NO":999,"REV_AT_EPOCH":66916,"BSTAR":0.00016472679,"MEAN_MOTION_DOT":5.57e-6,"MEAN_MOTION_DDOT":0},{"OBJECT_NAME":"SL-14 R/B","OBJECT_ID":"1989-080C","EPOCH":"2026-03-28T14:24:19.928160","MEAN_MOTION":12.5051181,"ECCENTRICITY":0.12308925,"INCLINATION":82.5955,"RA_OF_ASC_NODE":161.0517,"ARG_OF_PERICENTER":141.5459,"MEAN_ANOMALY":228.0216,"EPHEMERIS_TYPE":0,"CLASSIFICATION_TYPE":"U","NORAD_CAT_ID":20262,"ELEMENT_SET_NO":999,"REV_AT_EPOCH":66251,"BSTAR":0.00010389303,"MEAN_MOTION_DOT":3.73e-6,"MEAN_MOTION_DDOT":0},{"OBJECT_NAME":"DELTA 1 R/B","OBJECT_ID":"1989-089B","EPOCH":"2026-03-28T14:08:15.595296","MEAN_MOTION":14.50678238,"ECCENTRICITY":0.00705102,"INCLINATION":97.0692,"RA_OF_ASC_NODE":292.0196,"ARG_OF_PERICENTER":63.4514,"MEAN_ANOMALY":297.389,"EPHEMERIS_TYPE":0,"CLASSIFICATION_TYPE":"U","NORAD_CAT_ID":20323,"ELEMENT_SET_NO":999,"REV_AT_EPOCH":89847,"BSTAR":9.5156541e-5,"MEAN_MOTION_DOT":3.51e-6,"MEAN_MOTION_DDOT":0},{"OBJECT_NAME":"ARIANE 40 R/B","OBJECT_ID":"1990-005H","EPOCH":"2026-03-28T13:49:30.982656","MEAN_MOTION":14.39882555,"ECCENTRICITY":0.00109776,"INCLINATION":98.3045,"RA_OF_ASC_NODE":147.6712,"ARG_OF_PERICENTER":143.2979,"MEAN_ANOMALY":216.8964,"EPHEMERIS_TYPE":0,"CLASSIFICATION_TYPE":"U","NORAD_CAT_ID":20443,"ELEMENT_SET_NO":999,"REV_AT_EPOCH":89552,"BSTAR":9.7732096e-5,"MEAN_MOTION_DOT":2.65e-6,"MEAN_MOTION_DDOT":0},{"OBJECT_NAME":"DELTA 2 R/B(1)","OBJECT_ID":"1990-008B","EPOCH":"2026-03-28T14:36:18.260352","MEAN_MOTION":15.5846142,"ECCENTRICITY":0.00778858,"INCLINATION":35.6036,"RA_OF_ASC_NODE":50.4637,"ARG_OF_PERICENTER":75.7767,"MEAN_ANOMALY":285.1606,"EPHEMERIS_TYPE":0,"CLASSIFICATION_TYPE":"U","NORAD_CAT_ID":20453,"ELEMENT_SET_NO":999,"REV_AT_EPOCH":92908,"BSTAR":0.00083950567,"MEAN_MOTION_DOT":0.0007715,"MEAN_MOTION_DDOT":0},{"OBJECT_NAME":"COSMOS 2058","OBJECT_ID":"1990-010A","EPOCH":"2026-03-28T13:59:22.756992","MEAN_MOTION":15.11489763,"ECCENTRICITY":0.00074581,"INCLINATION":82.4688,"RA_OF_ASC_NODE":28.8103,"ARG_OF_PERICENTER":268.6324,"MEAN_ANOMALY":91.4051,"EPHEMERIS_TYPE":0,"CLASSIFICATION_TYPE":"U","NORAD_CAT_ID":20465,"ELEMENT_SET_NO":999,"REV_AT_EPOCH":94509,"BSTAR":0.0003149639,"MEAN_MOTION_DOT":5.361e-5,"MEAN_MOTION_DDOT":0},{"OBJECT_NAME":"SL-14 R/B","OBJECT_ID":"1990-010B","EPOCH":"2026-03-28T12:06:20.871936","MEAN_MOTION":14.83585981,"ECCENTRICITY":0.00185942,"INCLINATION":82.4996,"RA_OF_ASC_NODE":249.7102,"ARG_OF_PERICENTER":235.4938,"MEAN_ANOMALY":124.4522,"EPHEMERIS_TYPE":0,"CLASSIFICATION_TYPE":"U","NORAD_CAT_ID":20466,"ELEMENT_SET_NO":999,"REV_AT_EPOCH":93127,"BSTAR":6.2060211e-5,"MEAN_MOTION_DOT":5.36e-6,"MEAN_MOTION_DDOT":0},{"OBJECT_NAME":"SL-14 R/B","OBJECT_ID":"1990-018B","EPOCH":"2026-03-28T14:35:13.704000","MEAN_MOTION":14.82163341,"ECCENTRICITY":0.001696,"INCLINATION":82.5237,"RA_OF_ASC_NODE":205.4106,"ARG_OF_PERICENTER":34.2487,"MEAN_ANOMALY":325.9817,"EPHEMERIS_TYPE":0,"CLASSIFICATION_TYPE":"U","NORAD_CAT_ID":20511,"ELEMENT_SET_NO":999,"REV_AT_EPOCH":92538,"BSTAR":5.6566333e-5,"MEAN_MOTION_DOT":4.75e-6,"MEAN_MOTION_DDOT":0},{"OBJECT_NAME":"HST","OBJECT_ID":"1990-037B","EPOCH":"2026-03-28T14:27:30.731328","MEAN_MOTION":15.29770791,"ECCENTRICITY":0.00016798,"INCLINATION":28.472,"RA_OF_ASC_NODE":270.956,"ARG_OF_PERICENTER":347.9689,"MEAN_ANOMALY":12.0867,"EPHEMERIS_TYPE":0,"CLASSIFICATION_TYPE":"U","NORAD_CAT_ID":20580,"ELEMENT_SET_NO":999,"REV_AT_EPOCH":77621,"BSTAR":0.00029759061,"MEAN_MOTION_DOT":9.067e-5,"MEAN_MOTION_DDOT":0},{"OBJECT_NAME":"SL-16 R/B","OBJECT_ID":"1990-046B","EPOCH":"2026-03-28T13:43:33.189024","MEAN_MOTION":14.15016132,"ECCENTRICITY":0.00163291,"INCLINATION":70.9976,"RA_OF_ASC_NODE":258.2537,"ARG_OF_PERICENTER":274.8301,"MEAN_ANOMALY":85.0957,"EPHEMERIS_TYPE":0,"CLASSIFICATION_TYPE":"U","NORAD_CAT_ID":20625,"ELEMENT_SET_NO":999,"REV_AT_EPOCH":85106,"BSTAR":0.00015581182,"MEAN_MOTION_DOT":2.54e-6,"MEAN_MOTION_DDOT":0},{"OBJECT_NAME":"COSMOS 2084","OBJECT_ID":"1990-055A","EPOCH":"2026-03-28T13:59:33.347904","MEAN_MOTION":15.05752483,"ECCENTRICITY":0.00140992,"INCLINATION":62.7892,"RA_OF_ASC_NODE":271.1329,"ARG_OF_PERICENTER":195.888,"MEAN_ANOMALY":164.1781,"EPHEMERIS_TYPE":0,"CLASSIFICATION_TYPE":"U","NORAD_CAT_ID":20663,"ELEMENT_SET_NO":999,"REV_AT_EPOCH":93916,"BSTAR":0.00021888595,"MEAN_MOTION_DOT":2.989e-5,"MEAN_MOTION_DDOT":0},{"OBJECT_NAME":"SL-6 R/B(2)","OBJECT_ID":"1990-055D","EPOCH":"2026-03-28T14:11:51.857088","MEAN_MOTION":15.0368386,"ECCENTRICITY":0.00278919,"INCLINATION":62.7832,"RA_OF_ASC_NODE":189.567,"ARG_OF_PERICENTER":351.2955,"MEAN_ANOMALY":8.7656,"EPHEMERIS_TYPE":0,"CLASSIFICATION_TYPE":"U","NORAD_CAT_ID":20666,"ELEMENT_SET_NO":999,"REV_AT_EPOCH":94103,"BSTAR":0.00016352722,"MEAN_MOTION_DOT":2.067e-5,"MEAN_MOTION_DDOT":0},{"OBJECT_NAME":"SL-8 R/B","OBJECT_ID":"1990-078B","EPOCH":"2026-03-28T10:53:40.925760","MEAN_MOTION":14.89622994,"ECCENTRICITY":0.0358517,"INCLINATION":82.902,"RA_OF_ASC_NODE":234.4248,"ARG_OF_PERICENTER":310.7252,"MEAN_ANOMALY":46.3331,"EPHEMERIS_TYPE":0,"CLASSIFICATION_TYPE":"U","NORAD_CAT_ID":20775,"ELEMENT_SET_NO":999,"REV_AT_EPOCH":81209,"BSTAR":0.0003921,"MEAN_MOTION_DOT":0.00013235,"MEAN_MOTION_DDOT":0}]
