SL-8 R/B                
1 19257U 88053B   26087.44758831  .00000369  00000+0  12793-3 0  9993
2 19257  74.0455  77.8862 0021474 254.6999 267.2318 14.38928827979298
COSMOS 1975             
1 19573U 88093A   26087.51722534  .00007977  00000+0  28733-3 0  9990
2 19573  82.5163  98.7773 0013402 103.3077 256.9658 15.28319504 22287
SL-14 R/B               
1 19574U 88093B   26087.60902696  .00000595  00000+0  65683-4 0  9995
2 19574  82.5338  24.2862 0020129 339.8892 193.5490 14.85678728  3827
SL-16 R/B               
1 19650U 88102B   26087.48187473 -.00000148  00000+0 -50536-4 0  9992
2 19650  70.9971 111.9564 0015105 333.4677  26.5671 14.16153562929559
INTERCOSMOS 24          
1 20261U 89080A   26087.46902403  .00000557  00000+0  16473-3 0  9997
2 20261  82.6011  92.1712 1186850 249.1916  97.8260 12.59582048669168
SL-14 R/B               
1 20262U 89080C   26087.60023065  .00000373  00000+0  10389-3 0  9998
2 20262  82.5955 161.0517 1230892 141.5459 228.0216 12.50511810662518
DELTA 1 R/B             
1 20323U 89089B   26087.58906939  .00000351  00000+0  95157-4 0  9995
2 20323  97.0692 292.0196 0070510  63.4514 297.3890 14.50678238898478
ARIANE 40 R/B           
1 20443U 90005H   26087.57605304  .00000265  00000+0  97732-4 0  9994
2 20443  98.3045 147.6712 0010977 143.2979 216.8964 14.39882555895526
DELTA 2 R/B(1)          
1 20453U 90008B   26087.60854468  .00077150  00000+0  83951-3 0  9993
2 20453  35.6036  50.4637 0077885  75.7767 285.1606 15.58461420929080
COSMOS 2058             
1 20465U 90010A   26087.58290228  .00005361  00000+0  31496-3 0  9996
2 20465  82.4688  28.8103 0007458 268.6324  91.4051 15.11489763945094
SL-14 R/B               
1 20466U 90010B   26087.50440824  .00000536  00000+0  62060-4 0  9999
2 20466  82.4996 249.7102 0018594 235.4938 124.4522 14.83585981931278
SL-14 R/B               
1 20511U 90018B   26087.60779750  .00000475  00000+0  56566-4 0  9998
2 20511  82.5237 205.4106 0016960  34.2487 325.9817 14.82163341925381
HST                     
1 20580U 90037B   26087.60243902  .00009067  00000+0  29759-3 0  9999
2 20580  28.4720 270.9560 0001679 347.9689  12.0867 15.29770791776213
SL-16 R/B               
1 20625U 90046B   26087.57191191  .00000254  00000+0  15581-3 0  9994
2 20625  70.9976 258.2537 0016329 274.8301  85.0957 14.15016132851061
COSMOS 2084             
1 20663U 90055A   26087.58302486  .00002989  00000+0  21889-3 0  9993
2 20663  62.7892 271.1329 0014099 195.8880 164.1781 15.05752483939166
SL-6 R/B(2)             
1 20666U 90055D   26087.59157242  .00002067  00000+0  16353-3 0  9992
2 20666  62.7832 189.5670 0027891 351.2955   8.7656 15.03683860941032
SL-8 R/B                
1 20775U 90078B   26087.45394590  .00013235  00000+0  39210-3 0  9998
2 20775  82.9020 234.4248 0358517 310.7252  46.3331 14.89622994812094
